CSS (TIANHE)            
1 48274U 21035A   23190.51514944  .00018301  00000+0  22590-3 0  9997
2 48274  41.4751  20.2693 0009329 247.9010 112.0838 15.59682066125321
